STARLINK-36708
1 67713U 26025W   26060.91762364  .00148205  00000+0  75762-3 0  9990
2 67713  97.2872 172.2148 0001350  84.0153 276.1270 15.80924993  4724
STARLINK-36750
1 67695U 26025C   26060.95692682  .00303588  00000+0  15253-2 0  9993
2 67695  97.2837 172.1689 0001282  96.3781 263.7633 15.80900259  4724
STARLINK-36385
1 67717U 26025AA  26061.04830962  .00257154  00000+0  12992-2 0  9998
2 67717  97.2873 172.3442 0001092  83.2058 276.9334 15.80898146  4746
STARLINK-36687
1 67711U 26025U   26061.05501931  .00249066  00000+0  12597-2 0  9998
2 67711  97.2869 172.3363 0001415 106.5379 253.6044 15.80895226  4758
STARLINK-36697
1 67698U 26025F   26060.95046664  .00356616  00000+0  17811-2 0  9991
2 67698  97.2840 172.1766 0001354 102.7851 257.3569 15.80893958  4721
STARLINK-36698
1 67709U 26025S   26061.05271394  .00260333  00000+0  13151-2 0  9999
2 67709  97.2869 172.3392 0001518  76.7014 283.4423 15.80891648  4740
STARLINK-36702
1 67714U 26025X   26061.04616218  .00226288  00000+0  11480-2 0  9996
2 67714  97.2873 172.3461 0000952  97.5167 262.6209 15.80886701  4744
STARLINK-36718
1 67715U 26025Y   26061.03999375  .00216807  00000+0  11012-2 0  9991
2 67715  97.2872 172.3548 0001050  69.1648 290.9733 15.80886289  4746
STARLINK-36287
1 67708U 26025R   26060.93303571  .00253934  00000+0  12842-2 0  9992
2 67708  97.2865 172.1967 0001239  85.5738 274.5672 15.80884617  4736
STARLINK-36715
1 67716U 26025Z   26061.04205664  .00207255  00000+0  10542-2 0  9998
2 67716  97.2873 172.3520 0001086  50.1398 309.9965 15.80878824  4743
STARLINK-36716
1 67699U 26025G   26060.94873683  .00211263  00000+0  10743-2 0  9995
2 67699  97.2847 172.1789 0001543  67.1993 292.9438 15.80874792  4731
STARLINK-36756
1 67817U 26032W   26061.16668981 -.00130825  00000+0 -69095-3 0  9994
2 67817  97.2826 247.3517 0001539 100.0846 266.7193 15.80864904  3575
STARLINK-36630
1 67703U 26025L   26060.94253104  .00170140  00000+0  86985-3 0  9991
2 67703  97.2855 172.1861 0001575  90.2734 269.8715 15.80864178  4729
STARLINK-36343
1 67816U 26032V   26061.16668981 -.00109790  00000+0 -57877-3 0  9995
2 67816  97.2827 247.3416 0001392  86.4686 258.8277 15.80849292  3511
STARLINK-36346
1 67818U 26032X   26061.16668981 -.00017736  00000+0 -91974-4 0  9992
2 67818  97.2828 247.3568 0001579  69.7729 306.5812 15.80830950  3574
STARLINK-36732
1 67813U 26032S   26061.16668981 -.00028208  00000+0 -14694-3 0  9996
2 67813  97.2829 247.3341 0001432  71.0750 253.7522 15.80824190  3577
STARLINK-36807
1 67810U 26032P   26061.16668981 -.00005737  00000+0 -29240-4 0  9999
2 67810  97.2830 247.3281 0001618  77.7467 227.4952 15.80808284  3574
STARLINK-36377
1 67812U 26032R   26061.16668981  .00009226  00000+0  48876-4 0  9992
2 67812  97.2825 247.3386 0001483  77.3450 252.9890 15.80806701  3570
STARLINK-36382
1 67807U 26032L   26061.16668981  .00006989  00000+0  37222-4 0  9992
2 67807  97.2834 247.3192 0001600  85.7057 201.1238 15.80801929  3519
STARLINK-36811
1 67808U 26032M   26061.16668981  .00046520  00000+0  24248-3 0  9991
2 67808  97.2837 247.3238 0001321  98.7795 194.7148 15.80800935  3576
STARLINK-36733
1 67811U 26032Q   26061.16668981  .00022599  00000+0  11850-3 0  9990
2 67811  97.2828 247.3305 0001554  88.6781 223.6202 15.80800622  3572
STARLINK-36782
1 67805U 26032J   26061.16668981  .00030590  00000+0  15999-3 0  9991
2 67805  97.2842 247.3161 0001563  96.4757 178.2121 15.80800358  3572
STARLINK-36739
1 67802U 26032F   26061.16668981  .00034336  00000+0  17948-3 0  9996
2 67802  97.2847 247.3125 0001554  90.5937 174.2970 15.80793253  3572
STARLINK-36798
1 67798U 26032B   26061.16668981  .00058341  00000+0  30381-3 0  9998
2 67798  97.2854 247.3014 0001594  93.7843 144.0547 15.80778044  3516
